BEIJING 1               
1 28890U 05043A   20321.92643262 -.00000022  00000-0  47948-5 0  9993
2 28890  98.0513  86.4340 0015291 179.8958 180.2242 14.61306267802785
HJ-1A                   
1 33320U 08041A   20321.89077321  .00000030  00000-0  11306-4 0  9997
2 33320  97.7684   8.4317 0026008 295.7107  64.1410 14.77091392657102
HJ-1B                   
1 33321U 08041B   20321.86862858  .00000175  00000-0  31553-4 0  9998
2 33321  97.7764  10.9031 0033972 327.3110  32.5987 14.77282422657101
YAOGAN 4                
1 33446U 08061A   20321.43009420  .00000074  00000-0  17403-4 0  9995
2 33446  97.7473 270.7535 0015550 202.7581 157.2942 14.77058500644268
DEIMOS-1                
1 35681U 09041A   20321.77461364  .00000139  00000-0  29738-4 0  9999
2 35681  97.7854 189.0358 0000371 350.4773   9.6428 14.71854778606798
UK-DMC 2                
1 35683U 09041C   20321.53307038  .00000185  00000-0  37358-4 0  9990
2 35683  97.6867 155.7318 0001414  66.6254 293.5099 14.71170843606543
RISAT 1                 
1 38248U 12017A   20321.78112402  .00000731  00000-0  48608-4 0  9990
2 38248  97.5651 329.1495 0005851  85.2486 274.9411 15.10222019471626
DMC3-FM1                
1 40715U 15032A   20321.88497702  .00000041  00000-0  13808-4 0  9990
2 40715  97.9130 212.0163 0016959  94.4007 265.9139 14.73671269288107
DMC3-FM2                
1 40716U 15032B   20321.84026165  .00000031  00000-0  12372-4 0  9992
2 40716  97.9161 212.3778 0014247 102.2971 257.9832 14.73684969288105
DMC3-FM3                
1 40717U 15032C   20321.86251203  .00000030  00000-0  12152-4 0  9993
2 40717  97.9177 213.1470 0017964  95.4445 264.8807 14.73686276288101
